[{"OBJECT_NAME":"OBJECT V","OBJECT_ID":"2023-085V","EPOCH":"2026-03-09T21:44:00.165408","MEAN_MOTION":15.30745852,"ECCENTRICITY":0.00069081,"INCLINATION":97.4843,"RA_OF_ASC_NODE":179.3833,"ARG_OF_PERICENTER":71.0503,"MEAN_ANOMALY":289.1485,"EPHEMERIS_TYPE":0,"CLASSIFICATION_TYPE":"U","NORAD_CAT_ID":57023,"ELEMENT_SET_NO":999,"REV_AT_EPOCH":15149,"BSTAR":0.00067780507,"MEAN_MOTION_DOT":0.00020109,"MEAN_MOTION_DDOT":0},{"OBJECT_NAME":"STARLINK-32848","OBJECT_ID":"2025-018C","EPOCH":"2026-03-09T21:59:34.250496","MEAN_MOTION":15.3020619,"ECCENTRICITY":0.00010745,"INCLINATION":53.1596,"RA_OF_ASC_NODE":308.5039,"ARG_OF_PERICENTER":153.5938,"MEAN_ANOMALY":206.5118,"EPHEMERIS_TYPE":0,"CLASSIFICATION_TYPE":"U","NORAD_CAT_ID":62808,"ELEMENT_SET_NO":999,"REV_AT_EPOCH":6320,"BSTAR":0.00081657949,"MEAN_MOTION_DOT":0.00023908,"MEAN_MOTION_DDOT":0}]
